SITRO-AIS 26            
1 59067U 24039S   26124.88490494  .00005698  00000+0  44504-3 0  9993
2 59067  95.3916 205.2485 0147728 119.7118 241.8904 14.92999005118258
SITRO-AIS 27            
1 59068U 24039T   26124.86715444  .00005369  00000+0  41589-3 0  9992
2 59068  95.3923 205.4881 0146805 118.4712 243.1391 14.93409500118274
SITRO-AIS 28            
1 59071U 24039U   26124.84560494  .00006282  00000+0  48548-3 0  9994
2 59071  95.3926 205.5180 0146901 118.3654 243.2474 14.93445010118274
GRBBETA                 
1 60237U 24128C   26124.80993073  .00004005  00000+0  27948-3 0  9990
2 60237  61.9916   8.4142 0046154 125.6315 234.9090 15.06289061 99737
OOV-CUBE (TUBSAT-30)    
1 60240U 24128F   26124.80182657  .00002316  00000+0  18459-3 0  9992
2 60240  61.9967  16.8307 0049710 124.2520 236.3295 15.02556763 99596
ROBUSTA-3A (MEDITERRAN*)
1 60243U 24128J   26124.79855083  .00008224  00000+0  48987-3 0  9996
2 60243  61.9879   1.6022 0046878 119.6127 240.9650 15.11005837 99867
LASARSAT                
1 62391U 24247Q   26124.13786994  .00030539  00000+0  66672-3 0  9991
2 62391  44.9718 149.2109 0004751  46.9495 313.1792 15.43710732 76503
CROCUBE                 
1 62394U 24247T   26124.76587697  .00033505  00000+0  69244-3 0  9996
2 62394  44.9711 143.6660 0004339  52.8788 307.2498 15.45285954 76627
FORESAIL-1 PRIME        
1 66778U 25276DS  26124.76815569  .00005154  00000+0  25454-3 0  9995
2 66778  97.4208 198.8442 0001038 229.0219 131.0926 15.18305678 23819
KNACKSAT-2              
1 67683U 98067XZ  26124.47714523  .00040009  00000+0  55994-3 0  9995
2 67683  51.6275 153.6873 0012746  35.8918 324.2927 15.56312178 13467
