
    {
        "ARG_OF_PERICENTER": 119.7118,
        "BSTAR": 0.00044504,
        "CLASSIFICATION_TYPE": "U",
        "ECCENTRICITY": 0.0147728,
        "ELEMENT_SET_NO": 999,
        "EPHEMERIS_TYPE": 0,
        "EPOCH": "2026-05-04T21:14:15.786816",
        "INCLINATION": 95.3916,
        "MEAN_ANOMALY": 241.8904,
        "MEAN_MOTION": 14.92999005,
        "MEAN_MOTION_DDOT": 0,
        "MEAN_MOTION_DOT": 5.698e-05,
        "NORAD_CAT_ID": 59067,
        "OBJECT_ID": "2024-039S",
        "OBJECT_NAME": "SITRO-AIS 26",
        "RA_OF_ASC_NODE": 205.2485,
        "REV_AT_EPOCH": 11825
    },
    {
        "ARG_OF_PERICENTER": 118.4712,
        "BSTAR": 0.00041589,
        "CLASSIFICATION_TYPE": "U",
        "ECCENTRICITY": 0.0146805,
        "ELEMENT_SET_NO": 999,
        "EPHEMERIS_TYPE": 0,
        "EPOCH": "2026-05-04T20:48:42.143616",
        "INCLINATION": 95.3923,
        "MEAN_ANOMALY": 243.1391,
        "MEAN_MOTION": 14.934095,
        "MEAN_MOTION_DDOT": 0,
        "MEAN_MOTION_DOT": 5.369e-05,
        "NORAD_CAT_ID": 59068,
        "OBJECT_ID": "2024-039T",
        "OBJECT_NAME": "SITRO-AIS 27",
        "RA_OF_ASC_NODE": 205.4881,
        "REV_AT_EPOCH": 11827
    },
    {
        "ARG_OF_PERICENTER": 118.3654,
        "BSTAR": 0.00048548,
        "CLASSIFICATION_TYPE": "U",
        "ECCENTRICITY": 0.0146901,
        "ELEMENT_SET_NO": 999,
        "EPHEMERIS_TYPE": 0,
        "EPOCH": "2026-05-04T20:17:40.266816",
        "INCLINATION": 95.3926,
        "MEAN_ANOMALY": 243.2474,
        "MEAN_MOTION": 14.9344501,
        "MEAN_MOTION_DDOT": 0,
        "MEAN_MOTION_DOT": 6.282e-05,
        "NORAD_CAT_ID": 59071,
        "OBJECT_ID": "2024-039U",
        "OBJECT_NAME": "SITRO-AIS 28",
        "RA_OF_ASC_NODE": 205.518,
        "REV_AT_EPOCH": 11827
    },
    {
        "ARG_OF_PERICENTER": 125.6315,
        "BSTAR": 0.00027948,
        "CLASSIFICATION_TYPE": "U",
        "ECCENTRICITY": 0.0046154,
        "ELEMENT_SET_NO": 999,
        "EPHEMERIS_TYPE": 0,
        "EPOCH": "2026-05-04T19:26:18.015072",
        "INCLINATION": 61.9916,
        "MEAN_ANOMALY": 234.909,
        "MEAN_MOTION": 15.06289061,
        "MEAN_MOTION_DDOT": 0,
        "MEAN_MOTION_DOT": 4.005e-05,
        "NORAD_CAT_ID": 60237,
        "OBJECT_ID": "2024-128C",
        "OBJECT_NAME": "GRBBETA",
        "RA_OF_ASC_NODE": 8.4142,
        "REV_AT_EPOCH": 9973
    },
    {
        "ARG_OF_PERICENTER": 124.252,
        "BSTAR": 0.00018459,
        "CLASSIFICATION_TYPE": "U",
        "ECCENTRICITY": 0.004971,
        "ELEMENT_SET_NO": 999,
        "EPHEMERIS_TYPE": 0,
        "EPOCH": "2026-05-04T19:14:37.815648",
        "INCLINATION": 61.9967,
        "MEAN_ANOMALY": 236.3295,
        "MEAN_MOTION": 15.02556763,
        "MEAN_MOTION_DDOT": 0,
        "MEAN_MOTION_DOT": 2.316e-05,
        "NORAD_CAT_ID": 60240,
        "OBJECT_ID": "2024-128F",
        "OBJECT_NAME": "OOV-CUBE (TUBSAT-30)",
        "RA_OF_ASC_NODE": 16.8307,
        "REV_AT_EPOCH": 9959
    },
    {
        "ARG_OF_PERICENTER": 119.6127,
        "BSTAR": 0.00048987,
        "CLASSIFICATION_TYPE": "U",
        "ECCENTRICITY": 0.0046878,
        "ELEMENT_SET_NO": 999,
        "EPHEMERIS_TYPE": 0,
        "EPOCH": "2026-05-04T19:09:54.791712",
        "INCLINATION": 61.9879,
        "MEAN_ANOMALY": 240.965,
        "MEAN_MOTION": 15.11005837,
        "MEAN_MOTION_DDOT": 0,
        "MEAN_MOTION_DOT": 8.224e-05,
        "NORAD_CAT_ID": 60243,
        "OBJECT_ID": "2024-128J",
        "OBJECT_NAME": "ROBUSTA-3A (MEDITERRANEE)",
        "RA_OF_ASC_NODE": 1.6022,
        "REV_AT_EPOCH": 9986
    },
    {
        "ARG_OF_PERICENTER": 46.9495,
        "BSTAR": 0.00066671917,
        "CLASSIFICATION_TYPE": "U",
        "ECCENTRICITY": 0.00047512,
        "ELEMENT_SET_NO": 999,
        "EPHEMERIS_TYPE": 0,
        "EPOCH": "2026-05-04T03:18:31.962816",
        "INCLINATION": 44.9718,
        "MEAN_ANOMALY": 313.1792,
        "MEAN_MOTION": 15.43710732,
        "MEAN_MOTION_DDOT": 0,
        "MEAN_MOTION_DOT": 0.00030539,
        "NORAD_CAT_ID": 62391,
        "OBJECT_ID": "2024-247Q",
        "OBJECT_NAME": "LASARSAT",
        "RA_OF_ASC_NODE": 149.2109,
        "REV_AT_EPOCH": 7650
    },
    {
        "ARG_OF_PERICENTER": 52.8788,
        "BSTAR": 0.00069244,
        "CLASSIFICATION_TYPE": "U",
        "ECCENTRICITY": 0.0004339,
        "ELEMENT_SET_NO": 999,
        "EPHEMERIS_TYPE": 0,
        "EPOCH": "2026-05-04T18:22:51.770208",
        "INCLINATION": 44.9711,
        "MEAN_ANOMALY": 307.2498,
        "MEAN_MOTION": 15.45285954,
        "MEAN_MOTION_DDOT": 0,
        "MEAN_MOTION_DOT": 0.00033505,
        "NORAD_CAT_ID": 62394,
        "OBJECT_ID": "2024-247T",
        "OBJECT_NAME": "CROCUBE",
        "RA_OF_ASC_NODE": 143.666,
        "REV_AT_EPOCH": 7662
    },
    {
        "ARG_OF_PERICENTER": 229.0219,
        "BSTAR": 0.00025454,
        "CLASSIFICATION_TYPE": "U",
        "ECCENTRICITY": 0.0001038,
        "ELEMENT_SET_NO": 999,
        "EPHEMERIS_TYPE": 0,
        "EPOCH": "2026-05-04T18:26:08.651616",
        "INCLINATION": 97.4208,
        "MEAN_ANOMALY": 131.0926,
        "MEAN_MOTION": 15.18305678,
        "MEAN_MOTION_DDOT": 0,
        "MEAN_MOTION_DOT": 5.154e-05,
        "NORAD_CAT_ID": 66778,
        "OBJECT_ID": "2025-276DS",
        "OBJECT_NAME": "FORESAIL-1 PRIME",
        "RA_OF_ASC_NODE": 198.8442,
        "REV_AT_EPOCH": 2381
    },
    {
        "ARG_OF_PERICENTER": 35.8918,
        "BSTAR": 0.00055993709,
        "CLASSIFICATION_TYPE": "U",
        "ECCENTRICITY": 0.00127468,
        "ELEMENT_SET_NO": 999,
        "EPHEMERIS_TYPE": 0,
        "EPOCH": "2026-05-04T11:27:05.347872",
        "INCLINATION": 51.6275,
        "MEAN_ANOMALY": 324.2927,
        "MEAN_MOTION": 15.56312178,
        "MEAN_MOTION_DDOT": 0,
        "MEAN_MOTION_DOT": 0.00040009,
        "NORAD_CAT_ID": 67683,
        "OBJECT_ID": "1998-067XZ",
        "OBJECT_NAME": "KNACKSAT-2",
        "RA_OF_ASC_NODE": 153.6873,
        "REV_AT_EPOCH": 1346
    }